[{"OBJECT_NAME":"STARLINK-2342","OBJECT_ID":"2021-021Z","EPOCH":"2026-03-10T00:00:02.999808","MEAN_MOTION":15.40904112,"ECCENTRICITY":0.00016531,"INCLINATION":53.1612,"RA_OF_ASC_NODE":266.4602,"ARG_OF_PERICENTER":74.5367,"MEAN_ANOMALY":257.8854,"EPHEMERIS_TYPE":0,"CLASSIFICATION_TYPE":"U","NORAD_CAT_ID":47883,"ELEMENT_SET_NO":999,"REV_AT_EPOCH":571,"BSTAR":0.033080837,"MEAN_MOTION_DOT":0.01534298,"MEAN_MOTION_DDOT":0},{"OBJECT_NAME":"KANYINI","OBJECT_ID":"2024-149CS","EPOCH":"2026-03-09T19:18:08.153856","MEAN_MOTION":15.45660606,"ECCENTRICITY":0.00016871,"INCLINATION":97.3773,"RA_OF_ASC_NODE":153.5111,"ARG_OF_PERICENTER":210.847,"MEAN_ANOMALY":149.268,"EPHEMERIS_TYPE":0,"CLASSIFICATION_TYPE":"U","NORAD_CAT_ID":60556,"ELEMENT_SET_NO":999,"REV_AT_EPOCH":8712,"BSTAR":0.00073104895,"MEAN_MOTION_DOT":0.00035272,"MEAN_MOTION_DDOT":0}]
